OBJECT_NAME,OBJECT_ID,EPOCH,MEAN_MOTION,ECCENTRICITY,INCLINATION,RA_OF_ASC_NODE,ARG_OF_PERICENTER,MEAN_ANOMALY,EPHEMERIS_TYPE,CLASSIFICATION_TYPE,NORAD_CAT_ID,ELEMENT_SET_NO,REV_AT_EPOCH,BSTAR,MEAN_MOTION_DOT,MEAN_MOTION_DDOT
FLOCK 4BE-15,2024-149Z,2026-07-01T04:34:46.403040,15.62266570,.0004332,97.3682,268.1164,216.9084,143.1877,0,U,60491,999,10461,.15407E-2,.13774E-2,0
FLOCK 4BE-17,2024-149AA,2026-07-01T04:35:15.245952,15.40189102,.0003367,97.3777,265.6740,184.4978,175.6239,0,U,60492,999,10441,.52778E-3,.21139E-3,0
NUSAT-50 (NANCY ROMAN),2024-149AB,2026-07-01T03:57:08.180064,15.30099356,.0004475,97.3792,263.3247,135.6161,224.5439,0,U,60493,999,10426,.42372E-3,.12277E-3,0
FLOCK 4BE-22,2024-149AC,2026-07-01T05:23:59.121312,15.41590042,.00035925,97.3738,265.9219,195.9264,164.1870,0,U,60494,999,10446,.53619252E-3,.22501E-3,0
FLOCK 4BE-34,2024-149AD,2026-07-01T04:15:24.468192,15.41562608,.0003432,97.3784,266.7050,202.5981,157.5115,0,U,60495,999,10448,.47651E-3,.19961E-3,0
TYCHE,2024-149AE,2026-07-01T13:29:42.734688,15.25872503,.0002078,97.3756,260.1863,199.6674,160.4485,0,U,60496,999,10409,.20775574E-3,.5249E-4,0
FLOCK 4BE-32,2024-149AF,2026-07-01T04:50:08.672928,15.42636343,.0003741,97.3726,266.2835,199.6015,160.5089,0,U,60497,999,10449,.58752E-3,.25549E-3,0
NUSAT-48 (HENRIETTA LEAVITT),2024-149AG,2026-07-01T05:14:57.318144,15.30092325,.0003002,97.3882,263.6470,191.4558,168.6615,0,U,60498,999,10428,.14775955E-2,.43158E-3,0
FLOCK 4BE-30,2024-149AH,2026-07-01T04:36:06.704064,15.60368952,.0005742,97.3769,268.2164,222.9733,137.1076,0,U,60499,999,10395,.27117E-2,.228067E-2,0
NUSAT-49 (KLARA DAN VON NEUMANN),2024-149AJ,2026-07-01T10:58:55.298208,15.30180056,.00011438,97.3783,263.6477,208.6163,151.5015,0,U,60500,999,10431,.39829904E-3,.11561E-3,0
FLOCK 4BE-11,2024-149AK,2026-07-01T04:31:43.887360,15.43437506,.0003724,97.3703,266.5143,199.6197,160.4908,0,U,60501,999,10451,.49797E-3,.22222E-3,0
YAM-7,2024-149AN,2026-07-01T03:59:45.517920,15.32008870,.0002298,97.3785,262.3604,221.1695,138.9374,0,U,60504,999,10419,.31238E-3,.9579E-4,0
FLOCK 4BE-24,2024-149AP,2026-07-01T04:10:47.557056,15.43595493,.0003865,97.3719,266.7610,213.3829,146.7176,0,U,60505,999,10452,.60144E-3,.27017E-3,0
LUR-1,2024-149AQ,2026-07-01T05:42:34.132320,15.30287130,.0002708,97.3740,260.9653,241.1016,118.9953,0,U,60506,999,10412,.29819E-3,.8663E-4,0
TANAGER-1,2024-149AR,2026-06-30T05:51:48.731328,15.44715844,.00021764,97.2332,275.4608,250.5316,109.5698,0,U,60507,999,10505,.10615185E-4,.41E-5,0
EAGLEEYE,2024-149AS,2026-07-01T05:40:29.555616,15.73685328,.00050504,97.3722,276.3761,208.2506,151.8485,0,U,60508,999,10514,.1040229E-2,.147957E-2,0
FLOCK 4BE-29,2024-149AT,2026-07-01T04:12:47.003328,15.44602337,.0002344,97.3815,268.2625,213.0112,147.0990,0,U,60509,999,10457,.49703E-3,.23069E-3,0
TRANSPORTER-11 OBJECT AU,2024-149AU,2026-07-01T03:42:16.856064,15.40611089,.00029666,97.3736,265.9892,217.1845,142.9196,0,U,60510,999,10446,.4773495E-3,.19374E-3,0
FLOCK 4BE-2,2024-149AV,2026-07-01T11:42:54.601344,15.54327282,.00046298,97.3838,270.2061,209.1437,150.9559,0,U,60511,999,10472,.10817461E-2,.71217E-3,0
FLOCK 4BE-13,2024-149AW,2026-07-01T04:08:05.887104,15.42263596,.0003971,97.3725,266.7317,200.0148,160.0944,0,U,60512,999,10452,.4366E-3,.18713E-3,0
FLOCK 4BE-27,2024-149AX,2026-07-01T11:23:49.539552,15.34694147,.00026749,97.3828,264.3345,236.4835,123.6153,0,U,60513,999,10433,.31890461E-3,.10647E-3,0
FLOCK 4BE-9,2024-149AY,2026-07-01T04:20:52.579104,15.41212109,.0002367,97.3796,266.5915,215.3416,144.7674,0,U,60514,999,10447,.50725E-3,.2101E-3,0
FLOCK 4BE-6,2024-149BA,2026-07-01T05:18:26.517600,15.39962266,.00029581,97.3793,265.9635,220.5081,139.5945,0,U,60516,999,10443,.49302548E-3,.1959E-3,0
FLOCK 4BE-14,2024-149BB,2026-07-01T04:36:06.387840,15.41437351,.0003904,97.3701,266.0830,224.9775,135.1156,0,U,60517,999,10448,.5327E-3,.22241E-3,0
FLOCK 4BE-1,2024-149BC,2026-07-01T04:37:55.526592,15.43063566,.0003726,97.3785,267.4122,223.5892,136.5062,0,U,60518,999,10453,.53097E-3,.23408E-3,0
FLOCK 4BE-28,2024-149BD,2026-07-01T04:28:06.790080,15.45396002,.0003789,97.3754,268.1732,217.1045,142.9943,0,U,60519,999,10460,.50483E-3,.24081E-3,0
IPERDRONE.0,2024-149BE,2026-07-01T05:19:23.243520,15.68794218,.00042513,97.3778,276.1462,194.9997,165.1139,0,U,60520,999,10511,.96803321E-3,.111755E-2,0
TRANSPORTER-11 OBJECT BF,2024-149BF,2026-07-01T05:46:40.397376,15.93120675,.00069735,97.3721,279.3466,232.5722,127.4919,0,U,60521,999,10531,.13694547E-2,.477673E-2,.9182021E-4
CONNECTA IOT-2,2024-149BG,2026-07-01T03:57:49.684896,15.24091276,.0004793,97.3840,260.0993,275.2640,84.8050,0,U,60522,999,10402,.23051E-3,.5529E-4,0
CONNECTA IOT-4,2024-149BJ,2026-07-01T11:31:26.637888,15.42680454,.00048315,97.3802,267.0235,222.5756,137.5118,0,U,60524,999,10453,.5560909E-3,.24213E-3,0
ORESAT0.5,2024-149BK,2026-07-01T05:37:39.993024,15.45612202,.00050022,97.3731,268.4542,212.9058,147.1880,0,U,60525,999,10464,.55193738E-3,.26544E-3,0
DEIMOS,2024-149BL,2026-07-01T05:02:09.108096,15.44723851,.0004834,97.3788,268.5623,220.2008,139.8884,0,U,60526,999,10461,.52965134E-3,.24703E-3,0
CUAVA-2,2024-149BM,2026-07-01T05:13:10.999488,15.36437998,.00056633,97.3730,263.7626,232.0441,128.0292,0,U,60527,999,10432,.45466519E-3,.16103E-3,0
ERNST,2024-149BN,2026-07-01T12:51:10.350144,15.39579766,.00049459,97.3813,266.3657,230.7737,129.3070,0,U,60528,999,10448,.40782313E-3,.15985E-3,0
TORO,2024-149BQ,2026-07-01T03:33:08.863200,14.96472616,.00013075,97.6783,256.5552,97.4360,262.7010,0,U,60530,999,10204,.22400152E-3,.2486E-4,0
HYPSO-2,2024-149BR,2026-07-01T05:17:29.323392,14.98858857,.00014433,97.6815,258.2753,119.4432,240.6935,0,U,60531,999,10215,.30656331E-3,.3643E-4,0
LEMU NGE,2024-149BS,2026-07-01T10:36:02.234592,14.95015596,.00013753,97.6844,257.1133,53.7963,306.3385,0,U,60532,999,10208,.2230933E-3,.2384E-4,0
LEMUR-2-STELLA,2024-149BT,2026-07-01T04:17:00.417984,15.12103283,.0001118,97.6740,264.6964,98.1994,261.9363,0,U,60533,999,10261,.94556E-3,.16239E-3,0
SATELIOT_2,2024-149BU,2026-07-01T12:53:11.737824,14.96410431,.00015681,97.6822,257.2315,89.8070,270.3331,0,U,60534,999,10211,.19693229E-3,.2175E-4,0
NIGHTJAR,2024-149BV,2026-07-01T05:02:05.102592,14.99091155,.0001298,97.6829,258.7197,118.3447,241.7907,0,U,60535,999,14497,.31113727E-3,.372E-4,0
LEMUR-2-MARHISYAM,2024-149BW,2026-07-01T05:31:25.711680,15.11533605,.00032047,97.6887,265.2120,92.2550,267.9047,0,U,60536,999,10260,.78952737E-3,.13332E-3,0
SATELIOT_4,2024-149BX,2026-07-01T05:03:14.843808,14.96714201,.00019588,97.6733,256.4287,32.4988,327.6354,0,U,60537,999,10207,.20404766E-3,.2274E-4,0
PICO-02A021,2024-149BY,2026-06-30T22:40:13.988640,15.03385008,.00037725,97.6766,260.6591,354.2834,5.8348,0,U,60538,999,10180,.4216538E-3,.5672E-4,0
ICEYE-X43,2024-149BZ,2026-07-01T04:10:31.279296,14.99721877,.0007741,97.6822,258.9496,42.3593,317.8227,0,U,60539,999,10221,.36651E-3,.4469E-4,0
HAWK-10A,2024-149CA,2026-07-01T05:03:30.455424,14.96554190,.00039992,97.6887,257.8811,44.9365,315.2179,0,U,60540,999,10208,.16837E-3,.1858E-4,0
UMBRA-09,2024-149CB,2026-07-01T15:11:29.587776,15.18478452,.00014068,97.6979,270.0891,227.2667,132.8448,0,U,60541,999,10291,.97879027E-3,.20146E-3,0
QPS-SAR-8 (AMATERU-IV),2024-149CC,2026-07-01T15:05:46.084704,15.04281311,.0004212,97.6670,261.6574,75.6135,284.5558,0,U,60542,999,10244,.50406473E-3,.6959E-4,0
ARCTIC WEATHER SATELLITE,2024-149CD,2026-07-01T04:35:14.139168,14.89806224,.0003581,97.6798,252.2562,77.6522,282.5097,0,U,60543,999,10138,.11538E-3,.1054E-4,0
CAPELLA-15 (ACADIA-5),2024-149CE,2026-07-01T14:29:17.631456,14.92416728,.00038082,97.6768,255.1466,35.5557,324.5916,0,U,60544,999,10200,.4652978E-3,.4713E-4,0
HAWK-10B,2024-149CF,2026-07-01T05:03:18.355968,14.96553750,.00062424,97.6809,257.2219,56.7519,303.4300,0,U,60545,999,10208,.17354819E-3,.1917E-4,0
ICEYE-X39,2024-149CG,2026-07-01T05:16:25.709664,14.99983203,.00066325,97.6768,259.0524,83.0576,277.1401,0,U,60546,999,10222,.37156639E-3,.4562E-4,0
UMBRA-10,2024-149CH,2026-07-01T15:10:50.974752,15.18479307,.00007217,97.6985,270.1176,172.6903,187.4341,0,U,60547,999,10292,.96975333E-3,.19959E-3,0
ICEYE-X33,2024-149CJ,2026-06-30T04:03:59.641920,15.00873288,.00020684,97.7340,260.2362,102.9484,257.1971,0,U,60548,999,10215,.34850181E-3,.4374E-4,0
ICEYE-X40,2024-149CK,2026-07-01T04:43:18.507936,14.97983806,.00052,97.6803,258.4680,39.6210,320.5392,0,U,60549,999,10217,.15318E-3,.175E-4,0
SATELIOT_1,2024-149CL,2026-07-01T10:53:30.806592,14.98124622,.00073493,97.6746,258.1159,34.9202,325.2502,0,U,60550,999,10220,.15833293E-3,.1818E-4,0
BRO-14,2024-149CM,2026-07-01T04:08:50.115264,14.96213455,.0008045,97.6875,257.6994,58.9773,301.2237,0,U,60551,999,10208,.134E-3,.1454E-4,0
SATELIOT_3,2024-149CN,2026-07-01T03:54:09.713088,14.98115504,.0006198,97.6825,258.6315,54.4523,305.7277,0,U,60552,999,10217,.2893E-3,.3369E-4,0
BRO-15,2024-149CP,2026-07-01T14:57:55.072512,14.96204419,.00090056,97.6799,257.7299,49.4683,310.7322,0,U,60553,999,10216,.32988399E-3,.3665E-4,0
UM5-RIBAT,2024-149CQ,2026-07-01T11:17:32.376768,15.01156227,.00023368,97.6623,260.0779,37.9555,322.1834,0,U,60554,999,10233,.29970003E-3,.3782E-4,0
UM5-EOSAT,2024-149CR,2026-07-01T02:22:54.077664,15.01640699,.00091492,97.6756,260.6751,74.1730,286.0503,0,U,60555,999,10230,.37480896E-3,.481E-4,0
LASARSAT,2024-247Q,2026-07-01T10:37:24.818304,15.47204595,.00066341,44.9721,182.0574,62.8619,297.2947,0,U,62391,999,8552,.73494225E-3,.38073E-3,0
CROCUBE,2024-247T,2026-07-01T07:02:47.314752,15.49208624,.0006553,44.9690,179.9931,67.6168,292.5416,0,U,62394,999,8553,.91475E-3,.5103E-3,0
TEVEL2-4,2025-052D,2026-07-01T15:43:57.397152,15.35122895,.00046533,97.3888,79.0745,76.7769,283.3993,0,U,63213,999,7233,.67405526E-3,.22944E-3,0
TEVEL2-5,2025-052E,2026-06-30T05:50:33.814752,15.34882414,.00047019,97.3890,77.6036,80.7172,279.4603,0,U,63214,999,7211,.49541717E-3,.16701E-3,0
